[{"OBJECT_NAME":"JILIN-1 GAOFEN 2F","OBJECT_ID":"2021-097A","EPOCH":"2026-03-09T22:15:16.366464","MEAN_MOTION":15.06938169,"ECCENTRICITY":0.00186372,"INCLINATION":97.6538,"RA_OF_ASC_NODE":195.5232,"ARG_OF_PERICENTER":201.1609,"MEAN_ANOMALY":158.885,"EPHEMERIS_TYPE":0,"CLASSIFICATION_TYPE":"U","NORAD_CAT_ID":49338,"ELEMENT_SET_NO":999,"REV_AT_EPOCH":24136,"BSTAR":0.0003789548,"MEAN_MOTION_DOT":5.624e-5,"MEAN_MOTION_DDOT":0},{"OBJECT_NAME":"STARLINK-3741","OBJECT_ID":"2022-052X","EPOCH":"2026-03-09T20:58:20.736768","MEAN_MOTION":15.08835746,"ECCENTRICITY":0.00014314,"INCLINATION":53.2166,"RA_OF_ASC_NODE":268.2842,"ARG_OF_PERICENTER":88.678,"MEAN_ANOMALY":271.4377,"EPHEMERIS_TYPE":0,"CLASSIFICATION_TYPE":"U","NORAD_CAT_ID":52619,"ELEMENT_SET_NO":999,"REV_AT_EPOCH":21101,"BSTAR":-4.335461e-6,"MEAN_MOTION_DOT":-3.57e-6,"MEAN_MOTION_DDOT":0}]
